{"fetched_at":"2026-07-19T07:04:43.841Z","source":"https://celestrak.org/NORAD/elements/gp.php?GROUP=globalstar&FORMAT=JSON","constellation":"globalstar","records":[{"OBJECT_NAME":"GLOBALSTAR M069","OBJECT_ID":"2007-020C","EPOCH":"2026-07-18T21:08:37.345920","CLASSIFICATION_TYPE":"U","MEAN_MOTION":12.23472343,"ECCENTRICITY":0.0001537,"INCLINATION":52.0011,"RA_OF_ASC_NODE":162.419,"ARG_OF_PERICENTER":217.7382,"MEAN_ANOMALY":166.5826,"EPHEMERIS_TYPE":0,"NORAD_CAT_ID":31573,"ELEMENT_SET_NO":999,"REV_AT_EPOCH":88268,"BSTAR":0.00019067,"MEAN_MOTION_DOT":-7.2e-7,"MEAN_MOTION_DDOT":0},{"OBJECT_NAME":"GLOBALSTAR M072","OBJECT_ID":"2007-020D","EPOCH":"2026-07-18T20:37:49.356192","CLASSIFICATION_TYPE":"U","MEAN_MOTION":11.91658811,"ECCENTRICITY":0.0001657,"INCLINATION":51.9949,"RA_OF_ASC_NODE":15.9248,"ARG_OF_PERICENTER":42.3071,"MEAN_ANOMALY":97.2196,"EPHEMERIS_TYPE":0,"NORAD_CAT_ID":31574,"ELEMENT_SET_NO":999,"REV_AT_EPOCH":87875,"BSTAR":0.000010856,"MEAN_MOTION_DOT":-8.3e-7,"MEAN_MOTION_DDOT":0},{"OBJECT_NAME":"GLOBALSTAR M066","OBJECT_ID":"2007-048C","EPOCH":"2026-07-18T18:45:51.592896","CLASSIFICATION_TYPE":"U","MEAN_MOTION":12.30389915,"ECCENTRICITY":0.0005552,"INCLINATION":51.9611,"RA_OF_ASC_NODE":327.2145,"ARG_OF_PERICENTER":108.9165,"MEAN_ANOMALY":56.2792,"EPHEMERIS_TYPE":0,"NORAD_CAT_ID":32265,"ELEMENT_SET_NO":999,"REV_AT_EPOCH":86411,"BSTAR":0.00047372,"MEAN_MOTION_DOT":-3.9e-7,"MEAN_MOTION_DDOT":0},{"OBJECT_NAME":"GLOBALSTAR M079","OBJECT_ID":"2010-054A","EPOCH":"2026-07-18T19:41:08.425824","CLASSIFICATION_TYPE":"U","MEAN_MOTION":12.62266405,"ECCENTRICITY":0.0001128,"INCLINATION":52.0054,"RA_OF_ASC_NODE":12.3741,"ARG_OF_PERICENTER":83.7009,"MEAN_ANOMALY":24.5,"EPHEMERIS_TYPE":0,"NORAD_CAT_ID":37188,"ELEMENT_SET_NO":999,"REV_AT_EPOCH":72654,"BSTAR":-0.000025975,"MEAN_MOTION_DOT":-0.00000108,"MEAN_MOTION_DDOT":0},{"OBJECT_NAME":"GLOBALSTAR M074","OBJECT_ID":"2010-054B","EPOCH":"2026-07-18T12:19:41.187360","CLASSIFICATION_TYPE":"U","MEAN_MOTION":12.62262064,"ECCENTRICITY":0.000086,"INCLINATION":52.0034,"RA_OF_ASC_NODE":12.5681,"ARG_OF_PERICENTER":98.2672,"MEAN_ANOMALY":296.1009,"EPHEMERIS_TYPE":0,"NORAD_CAT_ID":37189,"ELEMENT_SET_NO":999,"REV_AT_EPOCH":72711,"BSTAR":-0.000023623429,"MEAN_MOTION_DOT":-0.00000108,"MEAN_MOTION_DDOT":0},{"OBJECT_NAME":"GLOBALSTAR M076","OBJECT_ID":"2010-054C","EPOCH":"2026-07-18T21:17:13.433856","CLASSIFICATION_TYPE":"U","MEAN_MOTION":12.62262528,"ECCENTRICITY":0.0001098,"INCLINATION":52.0048,"RA_OF_ASC_NODE":11.6376,"ARG_OF_PERICENTER":97.661,"MEAN_ANOMALY":73.7248,"EPHEMERIS_TYPE":0,"NORAD_CAT_ID":37190,"ELEMENT_SET_NO":999,"REV_AT_EPOCH":72687,"BSTAR":0.000065446,"MEAN_MOTION_DOT":-9.2e-7,"MEAN_MOTION_DDOT":0},{"OBJECT_NAME":"GLOBALSTAR M077","OBJECT_ID":"2010-054D","EPOCH":"2026-07-18T16:51:01.190304","CLASSIFICATION_TYPE":"U","MEAN_MOTION":11.67547264,"ECCENTRICITY":0.0002202,"INCLINATION":51.9961,"RA_OF_ASC_NODE":99.3059,"ARG_OF_PERICENTER":231.6265,"MEAN_ANOMALY":142.4542,"EPHEMERIS_TYPE":0,"NORAD_CAT_ID":37191,"ELEMENT_SET_NO":999,"REV_AT_EPOCH":72482,"BSTAR":-0.00041263,"MEAN_MOTION_DOT":-0.000001,"MEAN_MOTION_DDOT":0},{"OBJECT_NAME":"GLOBALSTAR M075","OBJECT_ID":"2010-054E","EPOCH":"2026-07-18T20:45:18.153216","CLASSIFICATION_TYPE":"U","MEAN_MOTION":12.62267882,"ECCENTRICITY":0.0000778,"INCLINATION":51.9955,"RA_OF_ASC_NODE":53.7414,"ARG_OF_PERICENTER":70.4833,"MEAN_ANOMALY":300.7164,"EPHEMERIS_TYPE":0,"NORAD_CAT_ID":37192,"ELEMENT_SET_NO":999,"REV_AT_EPOCH":72594,"BSTAR":0.000016805,"MEAN_MOTION_DOT":-0.00000101,"MEAN_MOTION_DDOT":0},{"OBJECT_NAME":"GLOBALSTAR M073","OBJECT_ID":"2010-054F","EPOCH":"2026-07-18T19:38:22.740864","CLASSIFICATION_TYPE":"U","MEAN_MOTION":12.6226694,"ECCENTRICITY":0.0001023,"INCLINATION":52.0081,"RA_OF_ASC_NODE":328.0085,"ARG_OF_PERICENTER":101.5931,"MEAN_ANOMALY":56.6217,"EPHEMERIS_TYPE":0,"NORAD_CAT_ID":37193,"ELEMENT_SET_NO":999,"REV_AT_EPOCH":72792,"BSTAR":0.000051589,"MEAN_MOTION_DOT":-9.5e-7,"MEAN_MOTION_DDOT":0},{"OBJECT_NAME":"GLOBALSTAR M083","OBJECT_ID":"2011-033A","EPOCH":"2026-07-18T16:11:03.198048","CLASSIFICATION_TYPE":"U","MEAN_MOTION":12.62264302,"ECCENTRICITY":0.0000709,"INCLINATION":51.9859,"RA_OF_ASC_NODE":276.6336,"ARG_OF_PERICENTER":109.6278,"MEAN_ANOMALY":55.2759,"EPHEMERIS_TYPE":0,"NORAD_CAT_ID":37739,"ELEMENT_SET_NO":999,"REV_AT_EPOCH":69692,"BSTAR":0.00011369,"MEAN_MOTION_DOT":-8.3e-7,"MEAN_MOTION_DDOT":0},{"OBJECT_NAME":"GLOBALSTAR M088","OBJECT_ID":"2011-033B","EPOCH":"2026-07-18T17:29:35.104992","CLASSIFICATION_TYPE":"U","MEAN_MOTION":12.6226948,"ECCENTRICITY":0.0000104,"INCLINATION":52.0189,"RA_OF_ASC_NODE":182.9693,"ARG_OF_PERICENTER":44.9161,"MEAN_ANOMALY":126.6719,"EPHEMERIS_TYPE":0,"NORAD_CAT_ID":37740,"ELEMENT_SET_NO":999,"REV_AT_EPOCH":69247,"BSTAR":-0.000050044,"MEAN_MOTION_DOT":-0.00000113,"MEAN_MOTION_DDOT":0},{"OBJECT_NAME":"GLOBALSTAR M091","OBJECT_ID":"2011-033C","EPOCH":"2026-07-18T20:47:53.801952","CLASSIFICATION_TYPE":"U","MEAN_MOTION":12.62264247,"ECCENTRICITY":0.0000511,"INCLINATION":51.9985,"RA_OF_ASC_NODE":145.4687,"ARG_OF_PERICENTER":31.0171,"MEAN_ANOMALY":347.2313,"EPHEMERIS_TYPE":0,"NORAD_CAT_ID":37741,"ELEMENT_SET_NO":999,"REV_AT_EPOCH":69328,"BSTAR":0.000046736,"MEAN_MOTION_DOT":-9.5e-7,"MEAN_MOTION_DDOT":0},{"OBJECT_NAME":"GLOBALSTAR M085","OBJECT_ID":"2011-033D","EPOCH":"2026-07-18T16:40:44.385024","CLASSIFICATION_TYPE":"U","MEAN_MOTION":12.62264423,"ECCENTRICITY":0.0000848,"INCLINATION":52.0127,"RA_OF_ASC_NODE":97.3113,"ARG_OF_PERICENTER":46.7197,"MEAN_ANOMALY":331.2121,"EPHEMERIS_TYPE":0,"NORAD_CAT_ID":37742,"ELEMENT_SET_NO":999,"REV_AT_EPOCH":69377,"BSTAR":0.00011916,"MEAN_MOTION_DOT":-8.2e-7,"MEAN_MOTION_DDOT":0},{"OBJECT_NAME":"GLOBALSTAR M081","OBJECT_ID":"2011-033E","EPOCH":"2026-07-18T17:18:56.613312","CLASSIFICATION_TYPE":"U","MEAN_MOTION":12.62265329,"ECCENTRICITY":0.0000734,"INCLINATION":51.9958,"RA_OF_ASC_NODE":99.6306,"ARG_OF_PERICENTER":59.1865,"MEAN_ANOMALY":319.2313,"EPHEMERIS_TYPE":0,"NORAD_CAT_ID":37743,"ELEMENT_SET_NO":999,"REV_AT_EPOCH":69392,"BSTAR":0.000090795,"MEAN_MOTION_DOT":-8.8e-7,"MEAN_MOTION_DDOT":0},{"OBJECT_NAME":"GLOBALSTAR M089","OBJECT_ID":"2011-033F","EPOCH":"2026-07-18T18:34:50.993184","CLASSIFICATION_TYPE":"U","MEAN_MOTION":12.62267618,"ECCENTRICITY":0.0000713,"INCLINATION":51.994,"RA_OF_ASC_NODE":53.6227,"ARG_OF_PERICENTER":92.7993,"MEAN_ANOMALY":346.4037,"EPHEMERIS_TYPE":0,"NORAD_CAT_ID":37744,"ELEMENT_SET_NO":999,"REV_AT_EPOCH":69477,"BSTAR":0.000020903,"MEAN_MOTION_DOT":-0.000001,"MEAN_MOTION_DDOT":0},{"OBJECT_NAME":"GLOBALSTAR M084","OBJECT_ID":"2011-080A","EPOCH":"2026-07-18T17:29:46.188384","CLASSIFICATION_TYPE":"U","MEAN_MOTION":12.6226362,"ECCENTRICITY":0.0000756,"INCLINATION":52.0015,"RA_OF_ASC_NODE":281.2602,"ARG_OF_PERICENTER":135.0336,"MEAN_ANOMALY":38.4577,"EPHEMERIS_TYPE":0,"NORAD_CAT_ID":38040,"ELEMENT_SET_NO":999,"REV_AT_EPOCH":67274,"BSTAR":0.00010179,"MEAN_MOTION_DOT":-8.6e-7,"MEAN_MOTION_DDOT":0}]}
